NORAD_CAT_ID,OBJECT_NAME,OBJECT_TYPE,EPOCH,MEAN_MOTION,ECCENTRICITY,INCLINATION,RA_OF_ASC_NODE,ARG_OF_PERICENTER,MEAN_ANOMALY,BSTAR,MEAN_MOTION_DOT,MEAN_MOTION_DDOT,TLE_LINE0,TLE_LINE1,TLE_LINE2,SEMIMAJOR_AXIS,PERIOD,APOGEE,PERIGEE,DECAYED
51963.0,STARLINK-3675,PAYLOAD,2023-03-17 11:41:19,15.08037622,0.0001229,53.1993,234.3194,86.863,273.2502,0.0001886,2.652e-05,0.0,0 STARLINK-3675,1 51963U 22025H   23076.48703039  .00002652  00000-0  18860-3 0  9998,2 51963  53.1993 234.3194 0001229  86.8630 273.2502 15.08037622 58005,6920.334,95.488,543.05,541.349,0.0
51963.0,STARLINK-3675,PAYLOAD,2023-03-17 19:38:29,15.08049148,0.0001375,53.199,232.8333,90.3035,269.8114,0.0004531,6.778e-05,0.0,0 STARLINK-3675,1 51963U 22025H   23076.81840256  .00006778  00000-0  45310-3 0  9991,2 51963  53.1990 232.8333 0001375  90.3035 269.8114 15.08049148 56960,6920.299,95.488,543.115,541.212,0.0
51963.0,STARLINK-3675,PAYLOAD,2023-03-18 19:30:01,15.08066089,0.0001474,53.1983,228.3746,87.6889,272.4271,0.00062424,9.455e-05,0.0,0 STARLINK-3675,1 51963U 22025H   23077.81252058  .00009455  00000-0  62424-3 0  9999,2 51963  53.1983 228.3746 0001474  87.6889 272.4271 15.08066089 57111,6920.247,95.487,543.132,541.092,0.0
51963.0,STARLINK-3675,PAYLOAD,2023-03-19 03:27:12,15.08055796,0.0001244,53.1982,226.8883,93.487,266.6263,0.00024309,3.503e-05,0.0,0 STARLINK-3675,1 51963U 22025H   23078.14389531  .00003503  00000-0  24309-3 0  9991,2 51963  53.1982 226.8883 0001244  93.4870 266.6263 15.08055796 58250,6920.278,95.487,543.004,541.283,0.0
51963.0,STARLINK-3675,PAYLOAD,2023-03-19 09:48:57,15.08052866,0.0001476,53.1985,225.6998,95.3314,264.7846,0.00019648,2.776e-05,0.0,0 STARLINK-3675,1 51963U 22025H   23078.40899624  .00002776  00000-0  19648-3 0  9990,2 51963  53.1985 225.6998 0001476  95.3314 264.7846 15.08052866 57203,6920.287,95.487,543.174,541.131,0.0
51963.0,STARLINK-3675,PAYLOAD,2023-03-19 19:21:33,15.08056757,0.0001657,53.1982,223.9153,96.9212,263.1969,0.00045813,6.858e-05,0.0,0 STARLINK-3675,1 51963U 22025H   23078.80664335  .00006858  00000-0  45813-3 0  9991,2 51963  53.1982 223.9153 0001657  96.9212 263.1969 15.08056757 57267,6920.275,95.487,543.287,540.994,0.0
51963.0,STARLINK-3675,PAYLOAD,2023-03-20 12:51:22,15.08040371,0.0001413,53.197,220.6455,87.8262,272.2891,0.00037257,5.52e-05,0.0,0 STARLINK-3675,1 51963U 22025H   23079.53567303  .00005520  00000-0  37257-3 0  9997,2 51963  53.1970 220.6455 0001413  87.8262 272.2891 15.08040371 58460,6920.326,95.488,543.168,541.213,0.0
51963.0,STARLINK-3675,PAYLOAD,2023-03-20 16:02:14,15.08050573,0.0001308,53.1992,220.0519,77.4497,282.6641,0.00050773,7.631e-05,0.0,0 STARLINK-3675,1 51963U 22025H   23079.66822237  .00007631  00000-0  50773-3 0  9994,2 51963  53.1992 220.0519 0001308  77.4497 282.6641 15.08050573 57391,6920.294,95.488,543.065,541.254,0.0
51963.0,STARLINK-3675,PAYLOAD,2023-03-21 12:42:55,15.08034693,0.0001368,53.1961,216.1858,96.4595,263.6552,0.00034605,5.106e-05,0.0,0 STARLINK-3675,1 51963U 22025H   23080.52980472  .00005106  00000-0  34605-3 0  9998,2 51963  53.1961 216.1858 0001368  96.4595 263.6552 15.08034693 58616,6920.343,95.489,543.155,541.261,0.0
51963.0,STARLINK-3675,PAYLOAD,2023-03-22 12:34:27,15.08064565,0.0001323,53.1971,211.7277,96.3812,263.7331,0.00090772,0.00013886,0.0,0 STARLINK-3675,1 51963U 22025H   23081.52392368  .00013886  00000-0  90772-3 0  9991,2 51963  53.1971 211.7277 0001323  96.3812 263.7331 15.08064565 58768,6920.252,95.487,543.032,541.201,0.0
51963.0,STARLINK-3675,PAYLOAD,2023-03-22 15:45:19,15.08074764,0.0001422,53.1966,211.133,98.517,261.5982,0.001205,0.00018545,0.0,0 STARLINK-3675,1 51963U 22025H   23081.65647031  .00018545  00000-0  12050-2 0  9994,2 51963  53.1966 211.1330 0001422  98.5170 261.5982 15.08074764 57698,6920.22,95.486,543.069,541.101,0.0
51963.0,STARLINK-3675,PAYLOAD,2023-03-23 01:17:55,15.08065486,0.00017,53.1949,209.3485,99.5235,260.5948,0.00046468,6.962e-05,0.0,0 STARLINK-3675,1 51963U 22025H   23082.05411659  .00006962  00000-0  46468-3 0  9995,2 51963  53.1949 209.3485 0001700  99.5235 260.5948 15.08065486 58841,6920.249,95.487,543.29,540.937,0.0
51963.0,STARLINK-3675,PAYLOAD,2023-03-23 12:25:58,15.0805224,0.000149,53.1958,207.2684,107.9881,252.1273,7.0308e-05,8.1e-06,0.0,0 STARLINK-3675,1 51963U 22025H   23082.51804064  .00000810  00000-0  70308-4 0  9999,2 51963  53.1958 207.2684 0001490 107.9881 252.1273 15.08052240 58916,6920.289,95.487,543.185,541.123,0.0
51963.0,STARLINK-3675,PAYLOAD,2023-03-23 14:01:24,15.08056203,0.0001684,53.1957,206.9711,104.3192,255.7986,0.00031041,4.553e-05,0.0,0 STARLINK-3675,1 51963U 22025H   23082.58431552  .00004553  00000-0  31041-3 0  9992,2 51963  53.1957 206.9711 0001684 104.3192 255.7986 15.08056203 57836,6920.277,95.487,543.308,540.977,0.0
51963.0,STARLINK-3675,PAYLOAD,2023-03-23 15:36:50,15.08059858,0.0001486,53.1947,206.6727,104.1676,255.9481,0.00062092,9.401e-05,0.0,0 STARLINK-3675,1 51963U 22025H   23082.65058926  .00009401  00000-0  62092-3 0  9997,2 51963  53.1947 206.6727 0001486 104.1676 255.9481 15.08059858 57846,6920.266,95.487,543.159,541.103,0.0
51963.0,STARLINK-3675,PAYLOAD,2023-03-24 01:09:27,15.08071935,0.0001329,53.1939,204.8907,92.82,267.2944,0.0014878,0.00022977,0.0,0 STARLINK-3675,1 51963U 22025H   23083.04823615  .00022977  00000-0  14878-2 0  9997,2 51963  53.1939 204.8907 0001329  92.8200 267.2944 15.08071935 58996,6920.229,95.486,543.014,541.174,0.0
51963.0,STARLINK-3675,PAYLOAD,2023-03-24 07:31:11,15.08117273,0.0001391,53.1941,203.7015,91.8784,268.2367,0.0032422,0.0005067,0.0,0 STARLINK-3675,1 51963U 22025H   23083.31332806  .00050670  00000-0  32422-2 0  9990,2 51963  53.1941 203.7015 0001391  91.8784 268.2367 15.08117273 59034,6920.09,95.483,542.918,540.993,0.0
51963.0,STARLINK-3675,PAYLOAD,2023-03-24 12:17:29,15.08099623,0.0001559,53.1941,202.8097,89.6419,270.4751,0.0016925,0.0002621,0.0,0 STARLINK-3675,1 51963U 22025H   23083.51214726  .00026210  00000-0  16925-2 0  9995,2 51963  53.1941 202.8097 0001559  89.6419 270.4751 15.08099623 59063,6920.144,95.484,543.088,540.931,0.0
51963.0,STARLINK-3675,PAYLOAD,2023-03-24 13:52:55,15.08121889,0.0002042,53.1942,202.5124,86.8951,273.2274,0.0026915,0.00041969,0.0,0 STARLINK-3675,1 51963U 22025H   23083.57841771  .00041969  00000-0  26915-2 0  9995,2 51963  53.1942 202.5124 0002042  86.8951 273.2274 15.08121889 57980,6920.076,95.483,543.354,540.528,0.0
51963.0,STARLINK-3675,PAYLOAD,2023-03-24 15:28:20,15.08144283,0.0001519,53.1935,202.2139,89.8646,270.2519,0.0044038,0.00069158,0.0,0 STARLINK-3675,1 51963U 22025H   23083.64468674  .00069158  00000-0  44038-2 0  9996,2 51963  53.1935 202.2139 0001519  89.8646 270.2519 15.08144283 59082,6920.008,95.482,542.924,540.822,0.0
51963.0,STARLINK-3675,PAYLOAD,2023-03-25 01:00:58,15.08040546,0.0002683,53.1934,200.4325,62.1251,298.0012,0.0013596,0.00020949,0.0,0 STARLINK-3675,1 51963U 22025H   23084.04234330  .00020949  00000-0  13596-2 0  9991,2 51963  53.1934 200.4325 0002683  62.1251 298.0012 15.08040546 59147,6920.325,95.488,544.047,540.333,0.0
51963.0,STARLINK-3675,PAYLOAD,2023-03-25 12:09:05,15.07917762,0.0001166,53.1924,198.3512,80.1182,279.9941,9.8298e-05,1.241e-05,0.0,0 STARLINK-3675,1 51963U 22025H   23084.50630829  .00001241  00000-0  98298-4 0  9993,2 51963  53.1924 198.3512 0001166  80.1182 279.9941 15.07917762 59216,6920.701,95.496,543.373,541.759,0.0
51963.0,STARLINK-3675,PAYLOAD,2023-03-25 15:19:57,15.0796847,0.0001423,53.1926,197.7559,120.565,239.5482,-0.00089619,-0.00014186,0.0,0 STARLINK-3675,1 51963U 22025H   23084.63885718 -.00014186  00000-0 -89619-3 0  9996,2 51963  53.1926 197.7559 0001423 120.5650 239.5482 15.07968470 59233,6920.546,95.493,543.395,541.426,0.0
51963.0,STARLINK-3675,PAYLOAD,2023-03-25 20:06:16,15.07963988,0.0001879,53.1924,196.864,140.7792,219.3336,1.7935e-05,-7e-08,0.0,0 STARLINK-3675,1 51963U 22025H   23084.83769530 -.00000007  00000-0  17935-4 0  9990,2 51963  53.1924 196.8640 0001879 140.7792 219.3336 15.07963988 58173,6920.559,95.493,543.725,541.124,0.0
51963.0,STARLINK-3675,PAYLOAD,2023-03-26 00:52:34,15.08009888,7e-06,53.1928,195.9723,337.2258,22.873,0.0020245,0.00031353,0.0,0 STARLINK-3675,1 51963U 22025H   23085.03651132  .00031353  00000-0  20245-2 0  9994,2 51963  53.1928 195.9723 0000070 337.2258  22.8730 15.08009888 59291,6920.419,95.49,542.332,542.235,0.0
51963.0,STARLINK-3675,PAYLOAD,2023-03-26 13:36:04,15.08054084,0.0001763,53.1926,193.5916,83.3445,276.7747,0.0021767,0.00033785,0.0,0 STARLINK-3675,1 51963U 22025H   23085.56671768  .00033785  00000-0  21767-2 0  9990,2 51963  53.1926 193.5916 0001763  83.3445 276.7747 15.08054084 59379,6920.284,95.487,543.369,540.929,0.0
51963.0,STARLINK-3675,PAYLOAD,2023-03-26 21:33:15,15.07992805,9.24e-05,53.192,192.108,97.2378,262.8718,-0.0018068,-0.00028273,0.0,0 STARLINK-3675,1 51963U 22025H   23085.89809797 -.00028273  00000-0 -18068-2 0  9999,2 51963  53.1920 192.1080 0000924  97.2378 262.8718 15.07992805 59428,6920.471,95.491,542.976,541.697,0.0
51963.0,STARLINK-3675,PAYLOAD,2023-03-27 11:52:09,15.0805667,0.0001193,53.1903,189.433,73.0508,287.0614,0.00045831,6.861e-05,0.0,0 STARLINK-3675,1 51963U 22025H   23086.49455728  .00006861  00000-0  45831-3 0  9993,2 51963  53.1903 189.4330 0001193  73.0508 287.0614 15.08056670 59518,6920.276,95.487,542.966,541.315,0.0
51963.0,STARLINK-3675,PAYLOAD,2023-03-27 13:27:35,15.08064425,0.0001244,53.1907,189.1354,73.3585,286.7543,0.00077601,0.00011826,0.0,0 STARLINK-3675,1 51963U 22025H   23086.56083100  .00011826  00000-0  77601-3 0  9999,2 51963  53.1907 189.1354 0001244  73.3585 286.7543 15.08064425 58434,6920.252,95.487,542.978,541.256,0.0
51963.0,STARLINK-3675,PAYLOAD,2023-03-28 11:43:41,15.08065202,0.0001244,53.1898,184.9703,96.8193,263.294,0.00062233,9.425e-05,0.0,0 STARLINK-3675,1 51963U 22025H   23087.48867396  .00009425  00000-0  62233-3 0  9995,2 51963  53.1898 184.9703 0001244  96.8193 263.2940 15.08065202 59660,6920.25,95.487,542.976,541.254,0.0
